GLOBALSTAR M023         
1 25621U 99004A   24178.97040834 -.00000004  00000+0  55353-3 0  9993
2 25621  52.0122  55.0535 0010931  63.5824  39.6884 12.62460109170956
GLOBALSTAR M040         
1 25622U 99004B   24178.96617350 -.00000126  00000+0 -12613-3 0  9994
2 25622  51.9931  58.6942 0001101  24.1084  80.8574 12.61976168170707
GLOBALSTAR M036         
1 25623U 99004C   24179.07407691 -.00000034  00000+0  70556-3 0  9990
2 25623  51.9967  96.2980 0011590  87.2354  15.2773 11.86568252136803
GLOBALSTAR M038         
1 25624U 99004D   24178.01398894 -.00000076  00000+0  15777-3 0  9998
2 25624  51.9993  17.2886 0002488  49.2590  72.3429 12.32501852158459
GLOBALSTAR M022         
1 25649U 99012A   24178.31868525 -.00000061  00000+0  30498-3 0  9991
2 25649  52.0006 178.3014 0002484 188.6412 274.2844 12.02484434133564
GLOBALSTAR M041         
1 25650U 99012B   24178.89136123 -.00000147  00000+0 -79050-3 0  9991
2 25650  52.0038  47.3618 0002606   0.9613 359.1228 11.96656418135994
GLOBALSTAR M046         
1 25651U 99012C   24179.21805816  .00000050  00000+0  15269-2 0  9993
2 25651  52.0035 138.9475 0002207 273.6023 191.2949 12.09392908141067
GLOBALSTAR M037         
1 25652U 99012D   24178.21549417 -.00000104  00000+0  13350-5 0  9998
2 25652  51.9973 188.1031 0001841 120.8856 319.3334 12.62409365166368
